OSCAR 7 (AO-7)          
1 07530U 74089B   18283.17140231 -.00000045  00000-0 -47539-6 0  9999
2 07530 101.7027 248.8277 0012385 111.7157 318.7785 12.53634810  9006
UOSAT 2 (UO-11)         
1 14781U 84021B   18282.83654342  .00000076  00000-0  15496-4 0  9994
2 14781  97.6393 314.0988 0009906  70.7283 289.5002 14.83035118840433
LUSAT (LO-19)           
1 20442U 90005G   18283.08022991  .00000012  00000-0  20530-4 0  9996
2 20442  98.6177 220.9033 0011910 165.9904 194.1612 14.32906520500345
ITAMSAT (IO-26)         
1 22826U 93061D   18283.09813858 -.00000010  00000-0  13861-4 0  9998
2 22826  98.8703 261.3925 0009082   8.2652 351.8677 14.30373247306186
RADIO ROSTO (RS-15)     
1 23439U 94085A   18282.92141822 -.00000037  00000-0  14823-3 0  9999
2 23439  64.8154 163.2818 0153463 161.1425 281.7810 11.27568428979503
JAS-2 (FO-29)           
1 24278U 96046B   18283.06561638 -.00000005  00000-0  29466-4 0  9992
2 24278  98.5149 105.9883 0350477 172.6762 187.9692 13.53086138 93778
TECHSAT 1B (GO-32)      
1 25397U 98043D   18283.08285133 -.00000018  00000-0  11009-4 0  9997
2 25397  98.6581 221.6613 0002265  65.7045 294.4370 14.23652612 52073
ISS (ZARYA)             
1 25544U 98067A   18283.21590318  .00001824  00000-0  35183-4 0  9990
2 25544  51.6419 165.4892 0003533 264.2491 242.0238 15.53798400136402
PCSAT (NO-44)           
1 26931U 01043C   18282.66723277 -.00000015  00000-0  25965-4 0  9998
2 26931  67.0502 294.0118 0007266 259.6688 100.3594 14.30519162888922
SAUDISAT 1C (SO-50)     
1 27607U 02058C   18283.16444267 -.00000007  00000-0  19874-4 0  9994
2 27607  64.5538  98.5665 0075642 304.5803  54.8178 14.75486102849924
CUTE-1 (CO-55)          
1 27844U 03031E   18282.99191199  .00000049  00000-0  41614-4 0  9994
2 27844  98.6878 289.9586 0010574  44.2720 315.9302 14.22137110792515
CUBESAT XI-IV (CO-57)   
1 27848U 03031J   18282.84255373  .00000036  00000-0  36319-4 0  9999
2 27848  98.6963 290.2462 0010611  54.6513 305.5655 14.21738244792328
MOZHAYETS 4 (RS-22)     
1 27939U 03042A   18283.20232635  .00000085  00000-0  23717-4 0  9991
2 27939  98.0076  59.4802 0013861 140.0401 312.9740 14.66721189803674
CUBESAT XI-V (CO-58)    
1 28895U 05043F   18283.06461856  .00000121  00000-0  32044-4 0  9993
2 28895  97.9253  69.9767 0018053  68.5595 291.7531 14.63588382690683
CUTE-1.7+APD II (CO-65) 
1 32785U 08021C   18283.22782973  .00000278  00000-0  35754-4 0  9993
2 32785  97.5476 289.9159 0013666  23.4184 336.7653 14.88185903566289
DELFI-C3 (DO-64)        
1 32789U 08021G   18283.17429436  .00001709  00000-0  12020-3 0  9993
2 32789  97.5000 335.0148 0010934 264.0642  95.9339 15.06353922569090
SEEDS II (CO-66)        
1 32791U 08021J   18282.79227242  .00000447  00000-0  50978-4 0  9997
2 32791  97.5339 295.1036 0013420   3.7834 356.3483 14.90642911566502
YUBILEINY (RS-30)       
1 32953U 08025A   18283.21227389  .00000027  00000-0  12375-3 0  9993
2 32953  82.4994 301.1448 0018221 321.7056  38.2729 12.43086093471064
KKS-1 (KISEKI)          
1 33499U 09002H   18283.20342347  .00000132  00000-0  27520-4 0  9992
2 33499  98.3578 108.7316 0008018 290.0570  69.9775 14.75368273522149
SWISSCUBE               
1 35932U 09051B   18282.91212533  .00000136  00000-0  41763-4 0  9999
2 35932  98.5608  76.9348 0007076 210.7688 149.3095 14.56202275480095
BEESAT                  
1 35933U 09051C   18283.20620392  .00000113  00000-0  36460-4 0  9992
2 35933  98.5645  78.8562 0005075 221.7699 138.3111 14.56301310480285
ITUPSAT 1               
1 35935U 09051E   18282.91365915  .00000089  00000-0  31517-4 0  9998
2 35935  98.5756  78.8061 0007422 220.9470 139.1170 14.55473296479981
XIWANG-1 (HOPE-1)       
1 36122U 09072B   18282.93192501 -.00000045  00000-0 -68920-5 0  9994
2 36122 100.0749 292.1901 0007209 202.9020 157.1774 13.16346689423642
JUGNU                   
1 37839U 11058B   18282.71710448  .00000302  00000-0  19552-4 0  9999
2 37839  19.9619  62.7528 0019001  69.1341  55.2337 14.12630634361478
SRMSAT                  
1 37841U 11058D   18282.90369062  .00000308  00000-0  24146-4 0  9996
2 37841  19.9715 113.1922 0011834 310.9972 192.4289 14.10616087361003
M-CUBED & EXP-1 PRIME   
1 37855U 11061F   18282.91903949  .00002032  00000-0  11003-3 0  9997
2 37855 101.7179  44.1491 0175660 102.6314 259.4602 15.04780991378438
STRAND-1                
1 39090U 13009E   18283.15550763  .00000011  00000-0  19159-4 0  9999
2 39090  98.5103 127.9866 0008485 322.4347  37.6245 14.35052780294319
SOMP                    
1 39134U 13015E   18282.93041780  .00001442  00000-0  77028-4 0  9992
2 39134  64.8624 115.6543 0004118 302.0398  58.0328 15.19467316302336
BEESAT-3                
1 39135U 13015F   18283.01092559  .00001116  00000-0  66184-4 0  9992
2 39135  64.8666 130.2587 0011265 235.3657 124.6408 15.16913696302064
BEESAT-2                
1 39136U 13015G   18282.95552917  .00001125  00000-0  67607-4 0  9995
2 39136  64.8678 133.5356 0011809 235.7719 124.2289 15.16371518301608
ZACUBE-1 (TSHEPISOSAT)  
1 39417U 13066B   18283.10779112  .00000246  00000-0  37215-4 0  9994
2 39417  97.5802 305.5675 0060123 137.6700 222.9176 14.80989866263801
GOMX 1                  
1 39430U 13066Q   18283.16859196  .00000273  00000-0  58791-4 0  9998
2 39430  97.7113 251.8381 0150827 328.1639  31.0510 14.59137732259910
CUBEBUG-2 (LO-74)       
1 39440U 13066AA  18283.07133910  .00000210  00000-0  36254-4 0  9999
2 39440  97.6007 291.4785 0080377 181.3507 178.7499 14.75730273262865
FUNCUBE-1 (AO-73)       
1 39444U 13066AE  18282.63743856  .00000301  00000-0  43415-4 0  9998
2 39444  97.5806 306.7909 0059327 134.1910 226.4201 14.81784603262605
UWE-3                   
1 39446U 13066AG  18282.96501740  .00000219  00000-0  35722-4 0  9990
2 39446  97.5889 297.9710 0070687 160.2743 200.1228 14.78264559261487
SPROUT                  
1 39770U 14029E   18283.19532725  .00000732  00000-0  87798-4 0  9993
2 39770  97.8800  23.3195 0008767 184.2572 175.8580 14.87000446237459
UNISAT-6                
1 40012U 14033C   18282.61019452  .00000204  00000-0  37900-4 0  9996
2 40012  97.7899 154.5373 0058043 189.3874 170.6255 14.73872656231557
DUCHIFAT-1              
1 40021U 14033M   18282.73221230  .00000570  00000-0  64311-4 0  9990
2 40021  97.9133 201.6448 0013314 155.0356 205.1508 14.90405981234015
FUNCUBE-3 (EO-79)       
1 40025U 14033R   18282.81035252  .00000302  00000-0  38276-4 0  9994
2 40025  97.9006 197.9472 0012761 161.8246 198.3429 14.88786869233849
NUDT-PHONESAT           
1 40900U 15049B   18283.13046947  .00002950  00000-0  13292-3 0  9994
2 40900  97.4415 290.0933 0013020 354.8264   5.2836 15.21770795169395
ZDPS 2A                 
1 40901U 15049C   18283.16612180  .00001076  00000-0  57301-4 0  9994
2 40901  97.4608 287.7396 0013762   5.2754 354.8622 15.17288662169095
ZDPS 2B                 
1 40902U 15049D   18283.15558861  .00001006  00000-0  54076-4 0  9998
2 40902  97.4518 285.5710 0013748   2.4674 357.6625 15.17076364169072
XW-2A                   
1 40903U 15049E   18283.19886030  .00002863  00000-0  71549-4 0  9991
2 40903  97.3732 319.1571 0013287 342.4658  17.6128 15.40920318171512
KAITUO 1A               
1 40904U 15049F   18283.20197141  .00000645  00000-0  37853-4 0  9998
2 40904  97.4625 284.6675 0014992   5.8129 124.6436 15.15131064168918
2015-049G               
1 40905U 15049G   18283.08182378  .00000511  00000-0  31619-4 0  9997
2 40905  97.4635 282.4403 0015722 359.6143   0.5074 15.14073676168804
XW-2C                   
1 40906U 15049H   18283.22242352  .00000833  00000-0  47597-4 0  9992
2 40906  97.4636 284.6362 0014878 357.8723   2.2444 15.15343275168917
XW-2D                   
1 40907U 15049J   18283.22902146  .00000904  00000-0  51115-4 0  9997
2 40907  97.4612 284.3284 0014168 355.8260   4.2852 15.15505750168922
LILACSAT 2              
1 40908U 15049K   18283.24518266  .00000470  00000-0  29735-4 0  9997
2 40908  97.4728 283.5507 0015896 358.0526   2.0640 15.13603364168771
XW-2F                   
1 40910U 15049M   18283.21632094  .00001345  00000-0  71797-4 0  9990
2 40910  97.4605 285.8408 0014701 350.4113   9.6838 15.16773231168894
XW-2B                   
1 40911U 15049N   18283.18488359  .00000838  00000-0  47753-4 0  9991
2 40911  97.4644 284.8638 0014097 356.6519   3.4616 15.15445180168814
KAITUO 1B               
1 40912U 15049P   18283.23923874  .00001183  00000-0  59683-4 0  9993
2 40912  97.4520 288.9671 0014700 336.0264  80.5198 15.19018652169131
TIANWANG 1C (TW-1C)     
1 40926U 15051B   18283.12059421  .00010539  00000-0  18379-3 0  9998
2 40926  97.1726 324.9827 0009171 207.2325 211.0903 15.50854589171116
TIANWANG 1A (TW-1A)     
1 40928U 15051D   18283.15135659  .00003039  00000-0  79944-4 0  9994
2 40928  97.1766 314.8452 0009932 265.4189 129.1355 15.39292257170465
LAPAN-A2 (IO-86)        
1 40931U 15052B   18281.80318675  .00000605  00000-0 -48185-5 0  9991
2 40931   6.0016  59.9067 0012644 178.7484 181.2977 14.76585763163821
E-ST@R-II               
1 41459U 16025D   18283.23394058  .00001536  00000-0  82918-4 0  9990
2 41459  98.1268 351.9815 0171328 122.4434 239.3522 15.04718608134726
AAUSAT 4                
1 41460U 16025E   18283.16445310  .00002519  00000-0  13149-3 0  9993
2 41460  98.1209 352.6050 0161949 117.7082 244.0753 15.06289242134791
NUSAT 1 (LO-87)         
1 41557U 16033B   18283.20560454  .00001734  00000-0  67772-4 0  9991
2 41557  97.4328   7.0718 0015141 104.7379 255.5539 15.27139321131714
BEESAT-4                
1 41619U 16040W   18282.90487167  .00001852  00000-0  83009-4 0  9995
2 41619  97.4033 344.4096 0011528 179.8291 180.2952 15.22432173115546
ALSAT 1N                
1 41789U 16059G   18283.10889711  .00000048  00000-0  18116-4 0  9990
2 41789  98.1075 344.1979 0029617  85.9561 274.5036 14.64184465108837
CAS-2T & KS-1Q          
1 41847U 16066G   18283.13549167  .00000063  00000-0  21030-4 0  9990
2 41847  98.7411 314.3920 0365016 262.9327  93.0227 14.37927101100841
NAYIF-1 (EO-88)         
1 42017U 17008BX  18282.75679556  .00001894  00000-0  79330-4 0  9999
2 42017  97.4369 347.0830 0005840 352.4466   7.6683 15.24775005 91529
LILACSAT-1              
1 42725U 98067ME  18283.15711409  .00056977  00000-0  36110-3 0  9998
2 42725  51.6337 129.2394 0002607 282.8042  77.2666 15.75963343 78609
MAX VALIER SAT          
1 42778U 17036P   18282.81815967  .00001240  00000-0  58040-4 0  9999
2 42778  97.3913 340.5637 0013385  35.1152 325.0964 15.21530939 71934
FOX-1B (AO-91)          
1 43017U 17073E   18282.75057697  .00000628  00000-0  55426-4 0  9992
2 43017  97.7100 209.1274 0257800 258.6490  98.5659 14.78232578 48036
FOX-1D (AO-92)          
1 43137U 18004AC  18282.76105558  .00001287  00000-0  57844-4 0  9999
2 43137  97.5218 345.7154 0010922  64.5384 295.6981 15.22941332 41147
